{
  "type": "FeatureCollection",
  "features": [
    {
      "type": "Feature",
      "properties": {
        "norad_id": 44334,
        "name": "EUTELSAT 7C",
        "group": "eutelsat",
        "lat": -0.01796230050502409,
        "lon": 171.00609233637653,
        "alt_km": 35780.70598387809,
        "timestamp": "2025-12-09T05:43:20.399498+00:00",
        "meta_object_name": "EUTELSAT 7C",
        "meta_object_id": "2019-034B",
        "meta_epoch": "2025-12-08T13:37:59.577024",
        "meta_mean_motion": 1.00270644,
        "meta_eccentricity": 0.0003493,
        "meta_inclination": 0.0737,
        "meta_ra_of_asc_node": 179.6012,
        "meta_arg_of_pericenter": 58.7605,
        "meta_mean_anomaly": 50.69,
        "meta_ephemeris_type": 0,
        "meta_classification_type": "U",
        "meta_norad_cat_id": 44334,
        "meta_element_set_no": 999,
        "meta_rev_at_epoch": 492,
        "meta_bstar": 0,
        "meta_mean_motion_dot": 5e-07,
        "meta_mean_motion_ddot": 0,
        "tle_line1": "1 44334U 19034B   25342.56805066  .00000050  00000+0  00000+0 0  9990",
        "tle_line2": "2 44334   0.0737 179.6012 0003493  58.7605  50.6900  1.00270644  4922"
      },
      "geometry": {
        "type": "Point",
        "coordinates": [
          171.00609233637653,
          -0.01796230050502409
        ]
      }
    },
    {
      "type": "Feature",
      "properties": {
        "norad_id": 44624,
        "name": "EUTELSAT 5 WEST B",
        "group": "eutelsat",
        "lat": 0.0026712475584295303,
        "lon": 159.02310660119394,
        "alt_km": 35788.78918153472,
        "timestamp": "2025-12-09T05:43:20.399510+00:00",
        "meta_object_name": "EUTELSAT 5 WEST B",
        "meta_object_id": "2019-067A",
        "meta_epoch": "2025-12-08T18:43:01.461792",
        "meta_mean_motion": 1.00270965,
        "meta_eccentricity": 0.0003533,
        "meta_inclination": 0.0649,
        "meta_ra_of_asc_node": 340.5321,
        "meta_arg_of_pericenter": 278.06,
        "meta_mean_anomaly": 94.9453,
        "meta_ephemeris_type": 0,
        "meta_classification_type": "U",
        "meta_norad_cat_id": 44624,
        "meta_element_set_no": 999,
        "meta_rev_at_epoch": 2252,
        "meta_bstar": 0,
        "meta_mean_motion_dot": -4e-07,
        "meta_mean_motion_ddot": 0,
        "tle_line1": "1 44624U 19067A   25342.77987803 -.00000040  00000+0  00000+0 0  9991",
        "tle_line2": "2 44624   0.0649 340.5321 0003533 278.0600  94.9453  1.00270965 22521"
      },
      "geometry": {
        "type": "Point",
        "coordinates": [
          159.02310660119394,
          0.0026712475584295303
        ]
      }
    },
    {
      "type": "Feature",
      "properties": {
        "norad_id": 45027,
        "name": "EUTELSAT KONNECT",
        "group": "eutelsat",
        "lat": 0.06352968057169821,
        "lon": 171.24538433948797,
        "alt_km": 35786.22089220977,
        "timestamp": "2025-12-09T05:43:20.399522+00:00",
        "meta_object_name": "EUTELSAT KONNECT",
        "meta_object_id": "2020-005B",
        "meta_epoch": "2025-12-08T15:20:57.215904",
        "meta_mean_motion": 1.00272826,
        "meta_eccentricity": 0.0001645,
        "meta_inclination": 0.0714,
        "meta_ra_of_asc_node": 97.9851,
        "meta_arg_of_pericenter": 167.2799,
        "meta_mean_anomaly": 49.8134,
        "meta_ephemeris_type": 0,
        "meta_classification_type": "U",
        "meta_norad_cat_id": 45027,
        "meta_element_set_no": 999,
        "meta_rev_at_epoch": 2242,
        "meta_bstar": 0,
        "meta_mean_motion_dot": 5.2e-07,
        "meta_mean_motion_ddot": 0,
        "tle_line1": "1 45027U 20005B   25342.63955111  .00000052  00000+0  00000+0 0  9997",
        "tle_line2": "2 45027   0.0714  97.9851 0001645 167.2799  49.8134  1.00272826 22425"
      },
      "geometry": {
        "type": "Point",
        "coordinates": [
          171.24538433948797,
          0.06352968057169821
        ]
      }
    },
    {
      "type": "Feature",
      "properties": {
        "norad_id": 49056,
        "name": "EUTELSAT QUANTUM",
        "group": "eutelsat",
        "lat": -0.0008188746167182282,
        "lon": -148.27012951619454,
        "alt_km": 35777.73421252225,
        "timestamp": "2025-12-09T05:43:20.399534+00:00",
        "meta_object_name": "EUTELSAT QUANTUM",
        "meta_object_id": "2021-069B",
        "meta_epoch": "2025-12-08T10:24:25.614720",
        "meta_mean_motion": 1.00271583,
        "meta_eccentricity": 0.00036828,
        "meta_inclination": 0.0323,
        "meta_ra_of_asc_node": 53.6769,
        "meta_arg_of_pericenter": 215.93,
        "meta_mean_anomaly": 11.6408,
        "meta_ephemeris_type": 0,
        "meta_classification_type": "U",
        "meta_norad_cat_id": 49056,
        "meta_element_set_no": 999,
        "meta_rev_at_epoch": 1601,
        "meta_bstar": 0,
        "meta_mean_motion_dot": 1.28e-06,
        "meta_mean_motion_ddot": 0,
        "tle_line1": "1 49056U 21069B   25342.43362980  .00000128  00000+0  00000+0 0  9992",
        "tle_line2": "2 49056   0.0323  53.6769 0003682 215.9300  11.6408  1.00271583 16014"
      },
      "geometry": {
        "type": "Point",
        "coordinates": [
          -148.27012951619454,
          -0.0008188746167182282
        ]
      }
    },
    {
      "type": "Feature",
      "properties": {
        "norad_id": 53765,
        "name": "EUTELSAT KONNECT VHTS",
        "group": "eutelsat",
        "lat": 0.05265096711182997,
        "lon": 166.74186336606894,
        "alt_km": 35782.87094890489,
        "timestamp": "2025-12-09T05:43:20.399546+00:00",
        "meta_object_name": "EUTELSAT KONNECT VHTS",
        "meta_object_id": "2022-110A",
        "meta_epoch": "2025-12-08T18:45:08.760096",
        "meta_mean_motion": 1.00270517,
        "meta_eccentricity": 0.0002636,
        "meta_inclination": 0.0627,
        "meta_ra_of_asc_node": 103.4573,
        "meta_arg_of_pericenter": 134.6308,
        "meta_mean_anomaly": 123.689,
        "meta_ephemeris_type": 0,
        "meta_classification_type": "U",
        "meta_norad_cat_id": 53765,
        "meta_element_set_no": 999,
        "meta_rev_at_epoch": 491,
        "meta_bstar": 0,
        "meta_mean_motion_dot": 1.9e-07,
        "meta_mean_motion_ddot": 0,
        "tle_line1": "1 53765U 22110A   25342.78135139  .00000019  00000+0  00000+0 0  9993",
        "tle_line2": "2 53765   0.0627 103.4573 0002636 134.6308 123.6890  1.00270517  4914"
      },
      "geometry": {
        "type": "Point",
        "coordinates": [
          166.74186336606894,
          0.05265096711182997
        ]
      }
    },
    {
      "type": "Feature",
      "properties": {
        "norad_id": 54048,
        "name": "EUTELSAT HOTBIRD 13F",
        "group": "eutelsat",
        "lat": -0.04845690091965365,
        "lon": 177.0785042243906,
        "alt_km": 35794.703922435605,
        "timestamp": "2025-12-09T05:43:20.399558+00:00",
        "meta_object_name": "EUTELSAT HOTBIRD 13F",
        "meta_object_id": "2022-134A",
        "meta_epoch": "2025-12-08T15:22:42.049344",
        "meta_mean_motion": 1.00271424,
        "meta_eccentricity": 0.0002045,
        "meta_inclination": 0.0486,
        "meta_ra_of_asc_node": 292.2851,
        "meta_arg_of_pericenter": 61.4058,
        "meta_mean_anomaly": 327.6443,
        "meta_ephemeris_type": 0,
        "meta_classification_type": "U",
        "meta_norad_cat_id": 54048,
        "meta_element_set_no": 999,
        "meta_rev_at_epoch": 1146,
        "meta_bstar": 0,
        "meta_mean_motion_dot": 8.9e-07,
        "meta_mean_motion_ddot": 0,
        "tle_line1": "1 54048U 22134A   25342.64076446  .00000089  00000+0  00000+0 0  9991",
        "tle_line2": "2 54048   0.0486 292.2851 0002045  61.4058 327.6443  1.00271424 11467"
      },
      "geometry": {
        "type": "Point",
        "coordinates": [
          177.0785042243906,
          -0.04845690091965365
        ]
      }
    },
    {
      "type": "Feature",
      "properties": {
        "norad_id": 54225,
        "name": "EUTELSAT HOTBIRD 13G",
        "group": "eutelsat",
        "lat": -0.04162855271183289,
        "lon": 177.0533686366015,
        "alt_km": 35778.55063505852,
        "timestamp": "2025-12-09T05:43:20.399569+00:00",
        "meta_object_name": "EUTELSAT HOTBIRD 13G",
        "meta_object_id": "2022-146A",
        "meta_epoch": "2025-12-08T15:22:42.049344",
        "meta_mean_motion": 1.00270657,
        "meta_eccentricity": 0.0001883,
        "meta_inclination": 0.0488,
        "meta_ra_of_asc_node": 235.9302,
        "meta_arg_of_pericenter": 310.6832,
        "meta_mean_anomaly": 134.7005,
        "meta_ephemeris_type": 0,
        "meta_classification_type": "U",
        "meta_norad_cat_id": 54225,
        "meta_element_set_no": 999,
        "meta_rev_at_epoch": 555,
        "meta_bstar": 0,
        "meta_mean_motion_dot": 8.9e-07,
        "meta_mean_motion_ddot": 0,
        "tle_line1": "1 54225U 22146A   25342.64076446  .00000089  00000+0  00000+0 0  9991",
        "tle_line2": "2 54225   0.0488 235.9302 0001883 310.6832 134.7005  1.00270657  5550"
      },
      "geometry": {
        "type": "Point",
        "coordinates": [
          177.0533686366015,
          -0.04162855271183289
        ]
      }
    }
  ]
}